{"type": "FeatureCollection", "features": [ {"type": "Feature", "properties": {"norad_id": 29808, "name": "FENGYUN 1C DEB", "group": "fengyun-1c-debris", "lat": 21.65504022846445, "lon": -99.12334716106092, "alt_km": 494.84810321649, "timestamp": "2025-12-12T05:47:29.042386+00:00", "meta": {"OBJECT_NAME": "FENGYUN 1C DEB", "OBJECT_ID": "1999-025DA", "EPOCH": "2025-12-11T08:08:48.207840", "MEAN_MOTION": 15.21007141, "ECCENTRICITY": 0.0018649, "INCLINATION": 99.0138, "RA_OF_ASC_NODE": 263.4116, "ARG_OF_PERICENTER": 94.5983, "MEAN_ANOMALY": 30.6551, "EPHEMERIS_TYPE": 0, "CLASSIFICATION_TYPE": "U", "NORAD_CAT_ID": 29808, "ELEMENT_SET_NO": 999, "REV_AT_EPOCH": 98204, "BSTAR": 0.026742101, "MEAN_MOTION_DOT": 0.00640421, "MEAN_MOTION_DDOT": 0}, "tle": {"line1": "1 29808U 99025DA  25345.33944685  .00640421  00000+0  26742-1 0  9991", "line2": "2 29808  99.0138 263.4116 0018649  94.5983  30.6551 15.21007141982043"}}, "geometry": {"type": "Point", "coordinates": [-99.12334716106092, 21.65504022846445]}}, {"type": "Feature", "properties": {"norad_id": 29809, "name": "FENGYUN 1C DEB", "group": "fengyun-1c-debris", "lat": 74.583289048176, "lon": -84.68800426589458, "alt_km": 722.7395881675766, "timestamp": "2025-12-12T05:47:29.042396+00:00", "meta": {"OBJECT_NAME": "FENGYUN 1C DEB", "OBJECT_ID": "1999-025DB", "EPOCH": "2025-12-11T21:23:17.608128", "MEAN_MOTION": 14.46587611, "ECCENTRICITY": 0.01161766, "INCLINATION": 98.8601, "RA_OF_ASC_NODE": 309.3936, "ARG_OF_PERICENTER": 352.5548, "MEAN_ANOMALY": 61.1367, "EPHEMERIS_TYPE": 0, "CLASSIFICATION_TYPE": "U", "NORAD_CAT_ID": 29809, "ELEMENT_SET_NO": 999, "REV_AT_EPOCH": 99455, "BSTAR": 0.00062139824, "MEAN_MOTION_DOT": 2.384e-05, "MEAN_MOTION_DDOT": 0}, "tle": {"line1": "1 29809U 99025DB  25345.89117602  .00002384  00000+0  62140-3 0  9998", "line2": "2 29809  98.8601 309.3936 0116176 352.5548  61.1367 14.46587611994558"}}, "geometry": {"type": "Point", "coordinates": [-84.68800426589458, 74.583289048176]}}, {"type": "Feature", "properties": {"norad_id": 29810, "name": "FENGYUN 1C DEB", "group": "fengyun-1c-debris", "lat": 47.6717843006389, "lon": -146.70621563314612, "alt_km": 807.2960829702597, "timestamp": "2025-12-12T05:47:29.042406+00:00", "meta": {"OBJECT_NAME": "FENGYUN 1C DEB", "OBJECT_ID": "1999-025DC", "EPOCH": "2025-12-11T14:51:01.055808", "MEAN_MOTION": 14.29127489, "ECCENTRICITY": 0.00669875, "INCLINATION": 99.2068, "RA_OF_ASC_NODE": 22.3794, "ARG_OF_PERICENTER": 22.2122, "MEAN_ANOMALY": 147.377, "EPHEMERIS_TYPE": 0, "CLASSIFICATION_TYPE": "U", "NORAD_CAT_ID": 29810, "ELEMENT_SET_NO": 999, "REV_AT_EPOCH": 98361, "BSTAR": 0.00038825901, "MEAN_MOTION_DOT": 9.6e-06, "MEAN_MOTION_DDOT": 0}, "tle": {"line1": "1 29810U 99025DC  25345.61876222  .00000960  00000+0  38826-3 0  9992", "line2": "2 29810  99.2068  22.3794 0066987  22.2122 147.3770 14.29127489983613"}}, "geometry": {"type": "Point", "coordinates": [-146.70621563314612, 47.6717843006389]}}, {"type": "Feature", "properties": {"norad_id": 29812, "name": "FENGYUN 1C DEB", "group": "fengyun-1c-debris", "lat": 58.27720515139349, "lon": 161.3752479442789, "alt_km": 880.066602494483, "timestamp": "2025-12-12T05:47:29.042416+00:00", "meta": {"OBJECT_NAME": "FENGYUN 1C DEB", "OBJECT_ID": "1999-025DE", "EPOCH": "2025-12-07T01:05:47.261760", "MEAN_MOTION": 14.01959129, "ECCENTRICITY": 0.01444592, "INCLINATION": 98.3498, "RA_OF_ASC_NODE": 170.3581, "ARG_OF_PERICENTER": 343.8427, "MEAN_ANOMALY": 145.6696, "EPHEMERIS_TYPE": 0, "CLASSIFICATION_TYPE": "U", "NORAD_CAT_ID": 29812, "ELEMENT_SET_NO": 999, "REV_AT_EPOCH": 96092, "BSTAR": 0.0016935691, "MEAN_MOTION_DOT": 2.789e-05, "MEAN_MOTION_DDOT": 0}, "tle": {"line1": "1 29812U 99025DE  25341.04568590  .00002789  00000+0  16936-2 0  9991", "line2": "2 29812  98.3498 170.3581 0144459 343.8427 145.6696 14.01959129960922"}}, "geometry": {"type": "Point", "coordinates": [161.3752479442789, 58.27720515139349]}}, {"type": "Feature", "properties": {"norad_id": 29813, "name": "FENGYUN 1C DEB", "group": "fengyun-1c-debris", "lat": 33.5073604077968, "lon": 0.2795266106112628, "alt_km": 867.5264621415108, "timestamp": "2025-12-12T05:47:29.042426+00:00", "meta": {"OBJECT_NAME": "FENGYUN 1C DEB", "OBJECT_ID": "1999-025DF", "EPOCH": "2025-12-12T00:47:02.253408", "MEAN_MOTION": 14.09450816, "ECCENTRICITY": 0.00118073, "INCLINATION": 98.7276, "RA_OF_ASC_NODE": 5.9145, "ARG_OF_PERICENTER": 224.1733, "MEAN_ANOMALY": 191.7782, "EPHEMERIS_TYPE": 0, "CLASSIFICATION_TYPE": "U", "NORAD_CAT_ID": 29813, "ELEMENT_SET_NO": 999, "REV_AT_EPOCH": 97250, "BSTAR": 5.9197688e-05, "MEAN_MOTION_DOT": 6.1e-07, "MEAN_MOTION_DDOT": 0}, "tle": {"line1": "1 29813U 99025DF  25346.03266497  .00000061  00000+0  59198-4 0  9997", "line2": "2 29813  98.7276   5.9145 0011807 224.1733 191.7782 14.09450816972503"}}, "geometry": {"type": "Point", "coordinates": [0.2795266106112628, 33.5073604077968]}}, {"type": "Feature", "properties": {"norad_id": 29815, "name": "FENGYUN 1C DEB", "group": "fengyun-1c-debris", "lat": -80.3645603359232, "lon": 51.31049583723782, "alt_km": 784.8471557610737, "timestamp": "2025-12-12T05:47:29.042436+00:00", "meta": {"OBJECT_NAME": "FENGYUN 1C DEB", "OBJECT_ID": "1999-025DH", "EPOCH": "2025-12-11T23:37:41.876544", "MEAN_MOTION": 14.63706017, "ECCENTRICITY": 0.01839484, "INCLINATION": 98.0565, "RA_OF_ASC_NODE": 354.5173, "ARG_OF_PERICENTER": 137.5735, "MEAN_ANOMALY": 223.9858, "EPHEMERIS_TYPE": 0, "CLASSIFICATION_TYPE": "U", "NORAD_CAT_ID": 29815, "ELEMENT_SET_NO": 999, "REV_AT_EPOCH": 99844, "BSTAR": 0.00079593877, "MEAN_MOTION_DOT": 5.251e-05, "MEAN_MOTION_DDOT": 0}, "tle": {"line1": "1 29815U 99025DH  25345.98451246  .00005251  00000+0  79594-3 0  9997", "line2": "2 29815  98.0565 354.5173 0183948 137.5735 223.9858 14.63706017998448"}}, "geometry": {"type": "Point", "coordinates": [51.31049583723782, -80.3645603359232]}}, {"type": "Feature", "properties": {"norad_id": 29816, "name": "FENGYUN 1C DEB", "group": "fengyun-1c-debris", "lat": 65.77000161570218, "lon": 46.811572790340826, "alt_km": 665.882062178438, "timestamp": "2025-12-12T05:47:29.042446+00:00", "meta": {"OBJECT_NAME": "FENGYUN 1C DEB", "OBJECT_ID": "1999-025DJ", "EPOCH": "2025-12-11T14:23:28.354272", "MEAN_MOTION": 14.44278042, "ECCENTRICITY": 0.02377716, "INCLINATION": 98.9928, "RA_OF_ASC_NODE": 205.5309, "ARG_OF_PERICENTER": 180.5267, "MEAN_ANOMALY": 200.0685, "EPHEMERIS_TYPE": 0, "CLASSIFICATION_TYPE": "U", "NORAD_CAT_ID": 29816, "ELEMENT_SET_NO": 999, "REV_AT_EPOCH": 98171, "BSTAR": 0.0015883588, "MEAN_MOTION_DOT": 7.669e-05, "MEAN_MOTION_DDOT": 0}, "tle": {"line1": "1 29816U 99025DJ  25345.59963373  .00007669  00000+0  15884-2 0  9990", "line2": "2 29816  98.9928 205.5309 0237771 180.5267 200.0685 14.44278042981716"}}, "geometry": {"type": "Point", "coordinates": [46.811572790340826, 65.77000161570218]}}, {"type": "Feature", "properties": {"norad_id": 29817, "name": "FENGYUN 1C DEB", "group": "fengyun-1c-debris", "lat": 69.41965334471057, "lon": 179.10323243502137, "alt_km": 838.3624640397866, "timestamp": "2025-12-12T05:47:29.042456+00:00", "meta": {"OBJECT_NAME": "FENGYUN 1C DEB", "OBJECT_ID": "1999-025DK", "EPOCH": "2025-12-11T22:44:40.123104", "MEAN_MOTION": 14.14250771, "ECCENTRICITY": 0.00123185, "INCLINATION": 98.5575, "RA_OF_ASC_NODE": 335.1807, "ARG_OF_PERICENTER": 17.8318, "MEAN_ANOMALY": 36.702, "EPHEMERIS_TYPE": 0, "CLASSIFICATION_TYPE": "U", "NORAD_CAT_ID": 29817, "ELEMENT_SET_NO": 999, "REV_AT_EPOCH": 97384, "BSTAR": 0.00049058844, "MEAN_MOTION_DOT": 8.95e-06, "MEAN_MOTION_DDOT": 0}, "tle": {"line1": "1 29817U 99025DK  25345.94768661  .00000895  00000+0  49059-3 0  9999", "line2": "2 29817  98.5575 335.1807 0012318  17.8318  36.7020 14.14250771973849"}}, "geometry": {"type": "Point", "coordinates": [179.10323243502137, 69.41965334471057]}}, {"type": "Feature", "properties": {"norad_id": 29818, "name": "FENGYUN 1C DEB", "group": "fengyun-1c-debris", "lat": -40.378032410476486, "lon": 36.074234901209856, "alt_km": 966.0299034331138, "timestamp": "2025-12-12T05:47:29.042467+00:00", "meta": {"OBJECT_NAME": "FENGYUN 1C DEB", "OBJECT_ID": "1999-025DL", "EPOCH": "2025-12-11T15:12:15.112800", "MEAN_MOTION": 14.04499942, "ECCENTRICITY": 0.01153412, "INCLINATION": 98.7212, "RA_OF_ASC_NODE": 222.9908, "ARG_OF_PERICENTER": 28.9521, "MEAN_ANOMALY": 0.7663, "EPHEMERIS_TYPE": 0, "CLASSIFICATION_TYPE": "U", "NORAD_CAT_ID": 29818, "ELEMENT_SET_NO": 999, "REV_AT_EPOCH": 96794, "BSTAR": 0.00022202062, "MEAN_MOTION_DOT": 3.34e-06, "MEAN_MOTION_DDOT": 0}, "tle": {"line1": "1 29818U 99025DL  25345.63350825  .00000334  00000+0  22202-3 0  9994", "line2": "2 29818  98.7212 222.9908 0115341  28.9521   0.7663 14.04499942967946"}}, "geometry": {"type": "Point", "coordinates": [36.074234901209856, -40.378032410476486]}}, {"type": "Feature", "properties": {"norad_id": 29819, "name": "FENGYUN 1C DEB", "group": "fengyun-1c-debris", "lat": -24.44291657602208, "lon": -25.99074254106091, "alt_km": 896.5367473929282, "timestamp": "2025-12-12T05:47:29.042477+00:00", "meta": {"OBJECT_NAME": "FENGYUN 1C DEB", "OBJECT_ID": "1999-025DM", "EPOCH": "2025-12-11T21:36:42.174432", "MEAN_MOTION": 14.02194077, "ECCENTRICITY": 0.01915012, "INCLINATION": 98.7319, "RA_OF_ASC_NODE": 329.6769, "ARG_OF_PERICENTER": 69.4134, "MEAN_ANOMALY": 348.6677, "EPHEMERIS_TYPE": 0, "CLASSIFICATION_TYPE": "U", "NORAD_CAT_ID": 29819, "ELEMENT_SET_NO": 999, "REV_AT_EPOCH": 96608, "BSTAR": 0.0006149718, "MEAN_MOTION_DOT": 1.065e-05, "MEAN_MOTION_DDOT": 0}, "tle": {"line1": "1 29819U 99025DM  25345.90048813  .00001065  00000+0  61497-3 0  9997", "line2": "2 29819  98.7319 329.6769 0191501  69.4134 348.6677 14.02194077966089"}}, "geometry": {"type": "Point", "coordinates": [-25.99074254106091, -24.44291657602208]}}]}